{
  "norad_id": 64283,
  "name": "HULIANWANG DIGUI-30",
  "history": [
    {
      "epoch": "2026-04-29T17:48:00.599040Z",
      "apogee_km": 1169.1200086105619,
      "perigee_km": 1166.7384701054216,
      "latitude_deg": -4.707952022977218e-05,
      "longitude_deg": -94.79871645672578,
      "height_km": 1170.5635747379488,
      "semi_major_axis_km": 7546.066239357991,
      "eccentricity": 0.0001578,
      "inclination_deg": 86.5026,
      "raan_deg": 29.9022,
      "arg_perigee_deg": 77.5107,
      "mean_anomaly_deg": 282.6203,
      "mean_motion_rev_day": 13.24408143
    },
    {
      "epoch": "2026-04-30T13:44:41.812224Z",
      "apogee_km": 1169.1205711821367,
      "perigee_km": 1166.7369199344303,
      "latitude_deg": 1.0923549664439893e-05,
      "longitude_deg": -35.069637800296434,
      "height_km": 1170.5708123413656,
      "semi_major_axis_km": 7546.065745558283,
      "eccentricity": 0.00015794,
      "inclination_deg": 86.5026,
      "raan_deg": 29.6221,
      "arg_perigee_deg": 77.903,
      "mean_anomaly_deg": 282.2281,
      "mean_motion_rev_day": 13.24408273
    },
    {
      "epoch": "2026-05-02T09:15:39.000384Z",
      "apogee_km": 1169.1194791353882,
      "perigee_km": 1166.7364318224481,
      "latitude_deg": -4.255680476577272e-05,
      "longitude_deg": 29.79373862451499,
      "height_km": 1170.5883863920205,
      "semi_major_axis_km": 7546.064955478918,
      "eccentricity": 0.0001579,
      "inclination_deg": 86.5025,
      "raan_deg": 29.0109,
      "arg_perigee_deg": 78.8014,
      "mean_anomaly_deg": 281.3297,
      "mean_motion_rev_day": 13.24408481
    },
    {
      "epoch": "2026-05-03T19:42:39.233952Z",
      "apogee_km": 1169.1190840334084,
      "perigee_km": 1166.7360368452219,
      "latitude_deg": 1.1990060265346733e-05,
      "longitude_deg": -128.8559489888845,
      "height_km": 1170.6035901191779,
      "semi_major_axis_km": 7546.064560439315,
      "eccentricity": 0.0001579,
      "inclination_deg": 86.5024,
      "raan_deg": 28.527,
      "arg_perigee_deg": 79.5657,
      "mean_anomaly_deg": 280.5655,
      "mean_motion_rev_day": 13.24408585
    },
    {
      "epoch": "2026-05-04T19:16:55.165728Z",
      "apogee_km": 1169.1177861618662,
      "perigee_km": 1166.736248358019,
      "latitude_deg": -6.41709394876398e-06,
      "longitude_deg": -123.72136627470282,
      "height_km": 1170.613952829007,
      "semi_major_axis_km": 7546.064017259942,
      "eccentricity": 0.0001578,
      "inclination_deg": 86.5023,
      "raan_deg": 28.196,
      "arg_perigee_deg": 80.0921,
      "mean_anomaly_deg": 280.0391,
      "mean_motion_rev_day": 13.24408728
    },
    {
      "epoch": "2026-05-05T18:51:11.104416Z",
      "apogee_km": 1169.1225251413089,
      "perigee_km": 1166.7304230200261,
      "latitude_deg": -1.1419789747020205e-05,
      "longitude_deg": -118.58691194671864,
      "height_km": 1170.622437422244,
      "semi_major_axis_km": 7546.063474080667,
      "eccentricity": 0.0001585,
      "inclination_deg": 86.5023,
      "raan_deg": 27.8649,
      "arg_perigee_deg": 80.5756,
      "mean_anomaly_deg": 279.5557,
      "mean_motion_rev_day": 13.24408871
    },
    {
      "epoch": "2026-05-06T18:25:27.039648Z",
      "apogee_km": 1169.123540476383,
      "perigee_km": 1166.7284200864415,
      "latitude_deg": 4.3292937103979665e-05,
      "longitude_deg": -113.45243957166534,
      "height_km": 1170.6308998351542,
      "semi_major_axis_km": 7546.062980281412,
      "eccentricity": 0.0001587,
      "inclination_deg": 86.5023,
      "raan_deg": 27.5338,
      "arg_perigee_deg": 81.0223,
      "mean_anomaly_deg": 279.1091,
      "mean_motion_rev_day": 13.24409001
    },
    {
      "epoch": "2026-05-07T19:48:30.347136Z",
      "apogee_km": 1169.1270323774306,
      "perigee_km": 1166.7243660140066,
      "latitude_deg": -2.7247038594120994e-05,
      "longitude_deg": -135.61532299025973,
      "height_km": 1170.6357646393776,
      "semi_major_axis_km": 7546.062699195719,
      "eccentricity": 0.0001592,
      "inclination_deg": 86.5022,
      "raan_deg": 27.1772,
      "arg_perigee_deg": 81.2991,
      "mean_anomaly_deg": 278.8323,
      "mean_motion_rev_day": 13.24409075
    },
    {
      "epoch": "2026-05-08T19:22:46.252128Z",
      "apogee_km": 1169.127574236335,
      "perigee_km": 1166.7233987281425,
      "latitude_deg": 3.454278254447066e-05,
      "longitude_deg": -130.48072296415842,
      "height_km": 1170.647372194375,
      "semi_major_axis_km": 7546.0624864822385,
      "eccentricity": 0.0001593,
      "inclination_deg": 86.5021,
      "raan_deg": 26.8461,
      "arg_perigee_deg": 81.8748,
      "mean_anomaly_deg": 278.2567,
      "mean_motion_rev_day": 13.24409131
    },
    {
      "epoch": "2026-05-09T20:45:49.524192Z",
      "apogee_km": 1169.1324537794626,
      "perigee_km": 1166.7177139126316,
      "latitude_deg": 2.73221201059675e-05,
      "longitude_deg": -152.64345303414456,
      "height_km": 1170.6594068408585,
      "semi_major_axis_km": 7546.062083846047,
      "eccentricity": 0.00016,
      "inclination_deg": 86.5021,
      "raan_deg": 26.4895,
      "arg_perigee_deg": 82.5069,
      "mean_anomaly_deg": 277.6247,
      "mean_motion_rev_day": 13.24409237
    },
    {
      "epoch": "2026-05-10T18:31:18.044832Z",
      "apogee_km": 1169.1350467091988,
      "perigee_km": 1166.7142701291787,
      "latitude_deg": 6.236410715022107e-05,
      "longitude_deg": -120.21145407085085,
      "height_km": 1170.6686168972833,
      "semi_major_axis_km": 7546.0616584191885,
      "eccentricity": 0.0001604,
      "inclination_deg": 86.5021,
      "raan_deg": 26.1839,
      "arg_perigee_deg": 82.9861,
      "mean_anomaly_deg": 277.1456,
      "mean_motion_rev_day": 13.24409349
    },
    {
      "epoch": "2026-05-11T19:54:21.335040Z",
      "apogee_km": 1169.1364229542987,
      "perigee_km": 1166.712627992316,
      "latitude_deg": -7.173814911119402e-05,
      "longitude_deg": -142.3743657449555,
      "height_km": 1170.6741454098901,
      "semi_major_axis_km": 7546.061525473307,
      "eccentricity": 0.0001606,
      "inclination_deg": 86.5021,
      "raan_deg": 25.8272,
      "arg_perigee_deg": 83.2637,
      "mean_anomaly_deg": 276.8679,
      "mean_motion_rev_day": 13.24409384
    },
    {
      "epoch": "2026-05-12T19:28:37.246080Z",
      "apogee_km": 1169.1438854363396,
      "perigee_km": 1166.7049983783154,
      "latitude_deg": 2.2048525050207534e-06,
      "longitude_deg": -137.23978697260247,
      "height_km": 1170.6802527793664,
      "semi_major_axis_km": 7546.061441907327,
      "eccentricity": 0.0001616,
      "inclination_deg": 86.502,
      "raan_deg": 25.4961,
      "arg_perigee_deg": 83.5998,
      "mean_anomaly_deg": 276.532,
      "mean_motion_rev_day": 13.24409406
    }
  ]
}